[{"OBJECT_NAME":"STARLINK-32208","OBJECT_ID":"2024-150R","EPOCH":"2025-12-31T21:02:35.570112","MEAN_MOTION":15.30196373,"ECCENTRICITY":7.9e-5,"INCLINATION":53.1575,"RA_OF_ASC_NODE":262.3844,"ARG_OF_PERICENTER":85.4565,"MEAN_ANOMALY":274.6525,"EPHEMERIS_TYPE":0,"CLASSIFICATION_TYPE":"U","NORAD_CAT_ID":60598,"ELEMENT_SET_NO":999,"REV_AT_EPOCH":7765,"BSTAR":2.3427e-5,"MEAN_MOTION_DOT":3.35e-6,"MEAN_MOTION_DDOT":0},{"OBJECT_NAME":"STARLINK-32165","OBJECT_ID":"2024-150S","EPOCH":"2026-01-01T03:05:07.867392","MEAN_MOTION":15.30200834,"ECCENTRICITY":0.00010049,"INCLINATION":53.1594,"RA_OF_ASC_NODE":261.1118,"ARG_OF_PERICENTER":65.9167,"MEAN_ANOMALY":294.1939,"EPHEMERIS_TYPE":0,"CLASSIFICATION_TYPE":"U","NORAD_CAT_ID":60599,"ELEMENT_SET_NO":999,"REV_AT_EPOCH":7769,"BSTAR":-4.5737079e-5,"MEAN_MOTION_DOT":-1.713e-5,"MEAN_MOTION_DDOT":0},{"OBJECT_NAME":"STARLINK-31923","OBJECT_ID":"2024-150T","EPOCH":"2026-01-01T02:49:56.729280","MEAN_MOTION":15.30174442,"ECCENTRICITY":0.00013515,"INCLINATION":53.1604,"RA_OF_ASC_NODE":261.0456,"ARG_OF_PERICENTER":66.2367,"MEAN_ANOMALY":293.8776,"EPHEMERIS_TYPE":0,"CLASSIFICATION_TYPE":"U","NORAD_CAT_ID":60600,"ELEMENT_SET_NO":999,"REV_AT_EPOCH":7769,"BSTAR":0.00016665317,"MEAN_MOTION_DOT":4.576e-5,"MEAN_MOTION_DDOT":0},{"OBJECT_NAME":"STARLINK-31988","OBJECT_ID":"2024-150U","EPOCH":"2026-01-01T02:40:49.196064","MEAN_MOTION":15.30197584,"ECCENTRICITY":0.00012508,"INCLINATION":53.1589,"RA_OF_ASC_NODE":261.0063,"ARG_OF_PERICENTER":77.0732,"MEAN_ANOMALY":283.0408,"EPHEMERIS_TYPE":0,"CLASSIFICATION_TYPE":"U","NORAD_CAT_ID":60601,"ELEMENT_SET_NO":999,"REV_AT_EPOCH":7761,"BSTAR":0.00014679294,"MEAN_MOTION_DOT":3.99e-5,"MEAN_MOTION_DDOT":0},{"OBJECT_NAME":"STARLINK-31983","OBJECT_ID":"2024-150V","EPOCH":"2026-01-01T02:22:35.256288","MEAN_MOTION":15.30188945,"ECCENTRICITY":0.00013111,"INCLINATION":53.1607,"RA_OF_ASC_NODE":260.9305,"ARG_OF_PERICENTER":75.5283,"MEAN_ANOMALY":284.5863,"EPHEMERIS_TYPE":0,"CLASSIFICATION_TYPE":"U","NORAD_CAT_ID":60602,"ELEMENT_SET_NO":999,"REV_AT_EPOCH":7761,"BSTAR":5.3170465e-5,"MEAN_MOTION_DOT":1.215e-5,"MEAN_MOTION_DDOT":0},{"OBJECT_NAME":"STARLINK-31874","OBJECT_ID":"2024-150W","EPOCH":"2026-01-01T02:31:42.108672","MEAN_MOTION":15.30169986,"ECCENTRICITY":7.84e-5,"INCLINATION":53.1588,"RA_OF_ASC_NODE":260.9678,"ARG_OF_PERICENTER":57.0962,"MEAN_ANOMALY":303.0114,"EPHEMERIS_TYPE":0,"CLASSIFICATION_TYPE":"U","NORAD_CAT_ID":60603,"ELEMENT_SET_NO":999,"REV_AT_EPOCH":7769,"BSTAR":-0.00017887562,"MEAN_MOTION_DOT":-5.648e-5,"MEAN_MOTION_DDOT":0},{"OBJECT_NAME":"STARLINK-32039","OBJECT_ID":"2024-150X","EPOCH":"2026-01-01T02:17:25.663488","MEAN_MOTION":15.30195973,"ECCENTRICITY":9.113e-5,"INCLINATION":53.1599,"RA_OF_ASC_NODE":263.7413,"ARG_OF_PERICENTER":124.2089,"MEAN_ANOMALY":235.8998,"EPHEMERIS_TYPE":0,"CLASSIFICATION_TYPE":"U","NORAD_CAT_ID":60604,"ELEMENT_SET_NO":999,"REV_AT_EPOCH":7765,"BSTAR":-3.0225677e-5,"MEAN_MOTION_DOT":-1.254e-5,"MEAN_MOTION_DDOT":0},{"OBJECT_NAME":"STARLINK-11247 [DTC]","OBJECT_ID":"2024-152A","EPOCH":"2026-01-01T12:53:08.365632","MEAN_MOTION":15.69695209,"ECCENTRICITY":0.00011936,"INCLINATION":53.1592,"RA_OF_ASC_NODE":87.6241,"ARG_OF_PERICENTER":126.3149,"MEAN_ANOMALY":233.7979,"EPHEMERIS_TYPE":0,"CLASSIFICATION_TYPE":"U","NORAD_CAT_ID":60720,"ELEMENT_SET_NO":999,"REV_AT_EPOCH":7828,"BSTAR":-8.476366e-6,"MEAN_MOTION_DOT":-1.615e-5,"MEAN_MOTION_DDOT":0},{"OBJECT_NAME":"STARLINK-11259 [DTC]","OBJECT_ID":"2024-152B","EPOCH":"2026-01-01T12:46:05.030688","MEAN_MOTION":15.69690624,"ECCENTRICITY":8.245e-5,"INCLINATION":53.159,"RA_OF_ASC_NODE":87.5858,"ARG_OF_PERICENTER":71.6852,"MEAN_ANOMALY":288.4256,"EPHEMERIS_TYPE":0,"CLASSIFICATION_TYPE":"U","NORAD_CAT_ID":60721,"ELEMENT_SET_NO":999,"REV_AT_EPOCH":7828,"BSTAR":-1.7693692e-5,"MEAN_MOTION_DOT":-2.729e-5,"MEAN_MOTION_DDOT":0},{"OBJECT_NAME":"STARLINK-11188 [DTC]","OBJECT_ID":"2024-152C","EPOCH":"2026-01-01T12:39:01.408032","MEAN_MOTION":15.69686254,"ECCENTRICITY":9.209e-5,"INCLINATION":53.159,"RA_OF_ASC_NODE":87.5487,"ARG_OF_PERICENTER":85.3551,"MEAN_ANOMALY":274.7572,"EPHEMERIS_TYPE":0,"CLASSIFICATION_TYPE":"U","NORAD_CAT_ID":60722,"ELEMENT_SET_NO":999,"REV_AT_EPOCH":7840,"BSTAR":-1.1887712e-5,"MEAN_MOTION_DOT":-2.026e-5,"MEAN_MOTION_DDOT":0},{"OBJECT_NAME":"STARLINK-11272 [DTC]","OBJECT_ID":"2024-152D","EPOCH":"2026-01-01T12:24:51.835968","MEAN_MOTION":15.69722328,"ECCENTRICITY":0.00010346,"INCLINATION":53.1598,"RA_OF_ASC_NODE":87.4848,"ARG_OF_PERICENTER":68.3975,"MEAN_ANOMALY":291.7153,"EPHEMERIS_TYPE":0,"CLASSIFICATION_TYPE":"U","NORAD_CAT_ID":60723,"ELEMENT_SET_NO":999,"REV_AT_EPOCH":7828,"BSTAR":-7.48011e-6,"MEAN_MOTION_DOT":-1.495e-5,"MEAN_MOTION_DDOT":0},{"OBJECT_NAME":"STARLINK-11261 [DTC]","OBJECT_ID":"2024-152E","EPOCH":"2026-01-01T15:35:18.724128","MEAN_MOTION":15.69702835,"ECCENTRICITY":9.75e-5,"INCLINATION":53.1596,"RA_OF_ASC_NODE":86.8899,"ARG_OF_PERICENTER":108.9996,"MEAN_ANOMALY":251.1128,"EPHEMERIS_TYPE":0,"CLASSIFICATION_TYPE":"U","NORAD_CAT_ID":60724,"ELEMENT_SET_NO":999,"REV_AT_EPOCH":7830,"BSTAR":-3.741813e-6,"MEAN_MOTION_DOT":-1.041e-5,"MEAN_MOTION_DDOT":0},{"OBJECT_NAME":"STARLINK-11263 [DTC]","OBJECT_ID":"2024-152F","EPOCH":"2026-01-01T12:17:49.626816","MEAN_MOTION":15.69691396,"ECCENTRICITY":0.00012872,"INCLINATION":53.1588,"RA_OF_ASC_NODE":87.4526,"ARG_OF_PERICENTER":138.9906,"MEAN_ANOMALY":221.1209,"EPHEMERIS_TYPE":0,"CLASSIFICATION_TYPE":"U","NORAD_CAT_ID":60725,"ELEMENT_SET_NO":999,"REV_AT_EPOCH":7828,"BSTAR":-1.7110942e-5,"MEAN_MOTION_DOT":-2.659e-5,"MEAN_MOTION_DDOT":0},{"OBJECT_NAME":"STARLINK-11235 [DTC]","OBJECT_ID":"2024-152G","EPOCH":"2026-01-01T12:10:45.150528","MEAN_MOTION":15.69690211,"ECCENTRICITY":0.00011832,"INCLINATION":53.1586,"RA_OF_ASC_NODE":87.4186,"ARG_OF_PERICENTER":74.6862,"MEAN_ANOMALY":285.4286,"EPHEMERIS_TYPE":0,"CLASSIFICATION_TYPE":"U","NORAD_CAT_ID":60726,"ELEMENT_SET_NO":999,"REV_AT_EPOCH":7841,"BSTAR":-3.0693006e-5,"MEAN_MOTION_DOT":-4.302e-5,"MEAN_MOTION_DDOT":0},{"OBJECT_NAME":"STARLINK-11080 [DTC]","OBJECT_ID":"2024-152H","EPOCH":"2026-01-01T12:03:42.522336","MEAN_MOTION":15.69687513,"ECCENTRICITY":0.00016643,"INCLINATION":53.1602,"RA_OF_ASC_NODE":87.3851,"ARG_OF_PERICENTER":50.1731,"MEAN_ANOMALY":309.9433,"EPHEMERIS_TYPE":0,"CLASSIFICATION_TYPE":"U","NORAD_CAT_ID":60727,"ELEMENT_SET_NO":999,"REV_AT_EPOCH":7841,"BSTAR":-1.9064232e-5,"MEAN_MOTION_DOT":-2.896e-5,"MEAN_MOTION_DDOT":0},{"OBJECT_NAME":"STARLINK-11249 [DTC]","OBJECT_ID":"2024-152J","EPOCH":"2026-01-01T13:28:19.586784","MEAN_MOTION":15.69686164,"ECCENTRICITY":0.00010091,"INCLINATION":53.1598,"RA_OF_ASC_NODE":87.0377,"ARG_OF_PERICENTER":69.1153,"MEAN_ANOMALY":290.9973,"EPHEMERIS_TYPE":0,"CLASSIFICATION_TYPE":"U","NORAD_CAT_ID":60728,"ELEMENT_SET_NO":999,"REV_AT_EPOCH":7829,"BSTAR":-2.1785102e-5,"MEAN_MOTION_DOT":-3.224e-5,"MEAN_MOTION_DDOT":0},{"OBJECT_NAME":"STARLINK-11146 [DTC]","OBJECT_ID":"2024-152K","EPOCH":"2026-01-01T11:49:33.200832","MEAN_MOTION":15.69705596,"ECCENTRICITY":0.00015808,"INCLINATION":53.1603,"RA_OF_ASC_NODE":87.3154,"ARG_OF_PERICENTER":35.2924,"MEAN_ANOMALY":324.8198,"EPHEMERIS_TYPE":0,"CLASSIFICATION_TYPE":"U","NORAD_CAT_ID":60729,"ELEMENT_SET_NO":999,"REV_AT_EPOCH":7841,"BSTAR":1.311305e-5,"MEAN_MOTION_DOT":9.99e-6,"MEAN_MOTION_DDOT":0},{"OBJECT_NAME":"STARLINK-11255 [DTC]","OBJECT_ID":"2024-152L","EPOCH":"2026-01-01T11:42:29.627424","MEAN_MOTION":15.69701195,"ECCENTRICITY":8.28e-5,"INCLINATION":53.1597,"RA_OF_ASC_NODE":87.2879,"ARG_OF_PERICENTER":60.3597,"MEAN_ANOMALY":299.7503,"EPHEMERIS_TYPE":0,"CLASSIFICATION_TYPE":"U","NORAD_CAT_ID":60730,"ELEMENT_SET_NO":999,"REV_AT_EPOCH":7829,"BSTAR":1.3355481e-5,"MEAN_MOTION_DOT":1.03e-5,"MEAN_MOTION_DDOT":0},{"OBJECT_NAME":"STARLINK-11254 [DTC]","OBJECT_ID":"2024-152M","EPOCH":"2026-01-01T14:38:47.958720","MEAN_MOTION":15.69704056,"ECCENTRICITY":9.434e-5,"INCLINATION":53.1594,"RA_OF_ASC_NODE":86.632,"ARG_OF_PERICENTER":47.0447,"MEAN_ANOMALY":313.065,"EPHEMERIS_TYPE":0,"CLASSIFICATION_TYPE":"U","NORAD_CAT_ID":60731,"ELEMENT_SET_NO":999,"REV_AT_EPOCH":7831,"BSTAR":1.177283e-6,"MEAN_MOTION_DOT":-4.46e-6,"MEAN_MOTION_DDOT":0},{"OBJECT_NAME":"STARLINK-11266 [DTC]","OBJECT_ID":"2024-152N","EPOCH":"2026-01-01T14:31:44.957280","MEAN_MOTION":15.69688894,"ECCENTRICITY":0.00010587,"INCLINATION":53.1592,"RA_OF_ASC_NODE":86.5827,"ARG_OF_PERICENTER":101.3182,"MEAN_ANOMALY":258.7955,"EPHEMERIS_TYPE":0,"CLASSIFICATION_TYPE":"U","NORAD_CAT_ID":60732,"ELEMENT_SET_NO":999,"REV_AT_EPOCH":7830,"BSTAR":-1.9329719e-5,"MEAN_MOTION_DOT":-2.927e-5,"MEAN_MOTION_DDOT":0},{"OBJECT_NAME":"STARLINK-32253","OBJECT_ID":"2024-152P","EPOCH":"2026-01-01T14:57:05.944608","MEAN_MOTION":15.3019854,"ECCENTRICITY":8.571e-5,"INCLINATION":53.1595,"RA_OF_ASC_NODE":219.8658,"ARG_OF_PERICENTER":95.2875,"MEAN_ANOMALY":264.8224,"EPHEMERIS_TYPE":0,"CLASSIFICATION_TYPE":"U","NORAD_CAT_ID":60733,"ELEMENT_SET_NO":999,"REV_AT_EPOCH":7653,"BSTAR":6.307743e-5,"MEAN_MOTION_DOT":1.51e-5,"MEAN_MOTION_DDOT":0},{"OBJECT_NAME":"STARLINK-32179","OBJECT_ID":"2024-152Q","EPOCH":"2026-01-01T00:17:20.154912","MEAN_MOTION":15.30222493,"ECCENTRICITY":7.63e-5,"INCLINATION":53.1594,"RA_OF_ASC_NODE":223.1766,"ARG_OF_PERICENTER":92.6175,"MEAN_ANOMALY":267.4913,"EPHEMERIS_TYPE":0,"CLASSIFICATION_TYPE":"U","NORAD_CAT_ID":60734,"ELEMENT_SET_NO":999,"REV_AT_EPOCH":7635,"BSTAR":9.0228632e-5,"MEAN_MOTION_DOT":2.316e-5,"MEAN_MOTION_DDOT":0},{"OBJECT_NAME":"STARLINK-32272","OBJECT_ID":"2024-152R","EPOCH":"2026-01-01T16:00:00.999936","MEAN_MOTION":15.34920624,"ECCENTRICITY":0.00040771,"INCLINATION":53.158,"RA_OF_ASC_NODE":219.1155,"ARG_OF_PERICENTER":188.8919,"MEAN_ANOMALY":342.304,"EPHEMERIS_TYPE":0,"CLASSIFICATION_TYPE":"U","NORAD_CAT_ID":60735,"ELEMENT_SET_NO":999,"REV_AT_EPOCH":571,"BSTAR":0.0049070653,"MEAN_MOTION_DOT":0.00172113,"MEAN_MOTION_DDOT":0}]
